STARLINK-1728
1 26582C 20070BC  21325.17289900 -.00017262  00000-0 -11562-2 0  3253
2 26582  53.0548   2.3970 0001920  60.6058 323.8179 15.06427315    18
